[{"OBJECT_NAME":"STARLINK-4699","OBJECT_ID":"2022-107S","EPOCH":"2026-03-09T22:11:48.741216","MEAN_MOTION":15.08836772,"ECCENTRICITY":0.00013465,"INCLINATION":53.216,"RA_OF_ASC_NODE":252.7435,"ARG_OF_PERICENTER":91.4444,"MEAN_ANOMALY":268.6702,"EPHEMERIS_TYPE":0,"CLASSIFICATION_TYPE":"U","NORAD_CAT_ID":53716,"ELEMENT_SET_NO":999,"REV_AT_EPOCH":19444,"BSTAR":1.174359e-6,"MEAN_MOTION_DOT":-2.69e-6,"MEAN_MOTION_DDOT":0},{"OBJECT_NAME":"COSMOS 397 DEB","OBJECT_ID":"1971-015AG","EPOCH":"2026-03-09T22:22:53.777568","MEAN_MOTION":14.12365411,"ECCENTRICITY":0.0445918,"INCLINATION":65.7074,"RA_OF_ASC_NODE":278.293,"ARG_OF_PERICENTER":75.555,"MEAN_ANOMALY":289.457,"EPHEMERIS_TYPE":0,"CLASSIFICATION_TYPE":"U","NORAD_CAT_ID":5144,"ELEMENT_SET_NO":999,"REV_AT_EPOCH":68427,"BSTAR":0.0016503671,"MEAN_MOTION_DOT":7.82e-5,"MEAN_MOTION_DDOT":0}]
